contact_info_id,phone_number,country_code,city,postal_code,address_one,address_two
1,+03(3)2949588615,osl,Mertietown,hgop,Non provident tempora quia minima dignissimos qui saepe.,Labore quidem odit eum quo.
2,(233)541-7011,pkn,Luisport,bnfz,Aspernatur amet quod sunt hic dignissimos.,Aut dolorem odio qui magnam est velit.
3,05378383508,vvg,North Joe,woeq,Sint ducimus excepturi expedita sint aut est.,Totam earum doloribus explicabo illum nihil modi fugiat.
4,04583950529,icy,Kayleeland,xcrw,Voluptatem voluptas iure autem libero nisi.,Tempore non omnis cumque corporis incidunt molestiae.
5,01780787691,cew,New General,aknv,Veniam nemo suscipit repellat est.,Sit ipsum sint ea rem et perferendis molestiae in.
6,846.613.7656x67176,rou,New Ray,wqjl,Molestias quo doloremque ipsam nesciunt.,Nihil sint similique in quisquam libero beatae et.
7,+11(2)6974889267,bgy,Meredithport,gexp,Corrupti quasi amet itaque velit.,Vel et blanditiis quos blanditiis ullam optio voluptatem numquam.
8,1-822-940-5867,bdc,Orionmouth,ubno,Inventore et maiores voluptatibus voluptatum harum et aut.,Delectus et vel praesentium itaque reprehenderit.
9,+90(8)5950767366,fys,South Nikoview,cxub,Fugiat consequatur excepturi in dolor.,Veritatis et ut ad pariatur cum ipsa id.
10,694-549-7168x0219,gkd,Walkerfurt,fawy,Nobis cum sint voluptas maiores molestias id doloremque dolore.,Id rerum aut veritatis ut.
11,04908163836,jzs,Sageport,gvrw,Quod officia adipisci quis sequi nemo.,Eos voluptas perspiciatis totam sed perspiciatis placeat voluptatem.
12,871-413-3741x8052,gts,Funkberg,ymhe,Quia ea vero officiis aut consequatur aspernatur earum repellendus.,Veniam consequatur aut commodi nam in possimus deserunt.
13,(600)794-9774,cwi,New Manuela,nfdg,Sint ut pariatur nostrum ratione qui et.,Perferendis asperiores tempore magni quia libero qui eum.
14,905-677-1281,ldr,East Chetmouth,gurb,Dolor omnis cumque a magnam ut voluptatem minus.,Animi quibusdam at quia et ut et.
15,318.165.9507x47423,phq,Serenityhaven,uqag,Quia quia veniam fugiat eligendi.,Amet velit et recusandae qui.
16,(336)662-8300x3864,hqr,Lowechester,yzqh,Rerum rerum eaque provident veritatis nemo.,Sit et qui facere sint laudantium quae.
17,648-053-4105,lyf,Adalineton,ndpa,Perferendis id harum deleniti est iure.,Error est omnis nulla quaerat.
18,(137)333-1750x1131,sjn,New Lupe,kqpx,Sapiente ut quod ab quis.,Quo voluptatem eos deserunt dolores occaecati sed dolorum.
19,351.998.9769x95376,zkr,Pfefferstad,xuhj,Earum labore ipsam illo quos.,Deserunt natus sit rerum voluptatibus culpa error.
20,760.812.5424,eez,Port Zoey,mdph,Molestiae enim nobis nihil corrupti repellendus hic.,Ad aut et delectus et laboriosam.
21,272-860-3258x27912,hyq,Lake Margaretta,fjwe,Corporis qui vitae animi doloremque eum cum temporibus.,Possimus aut architecto saepe quibusdam natus rem ut.
22,(587)045-0361x148,nej,Myronchester,ipnz,Quod sunt qui maxime.,Optio eum voluptate accusantium voluptatibus ut.
23,(351)191-8666x38814,qgl,Emardport,achf,Molestiae nobis non aut quae quae.,Quaerat minima assumenda et veniam delectus voluptates quo cupiditate.
24,1-950-556-2485x73370,iky,Ilaberg,oofd,Nihil eligendi voluptates tempora atque nulla quia sunt.,Et non saepe eos pariatur aperiam modi nam.
25,1-189-968-7963x1802,ucd,Ullrichfort,bpfe,Cumque odio dignissimos voluptatem voluptatem cum dolorem.,Accusantium id architecto officiis quaerat.
26,074-889-6134,psr,South Wayne,jwpf,Provident quia recusandae quos quo voluptatem aut dolorum ipsa.,Id consequatur numquam natus.
27,224-990-5765x25082,crz,Ardellatown,bhzi,Nisi voluptatem molestias voluptates eos.,Dolorum quisquam odio ut cumque quibusdam iure in.
28,+59(2)3851099474,oti,South Timmy,ihbr,Officiis ad dolor et dolorum provident id totam at.,Et vel sit et deleniti sed ullam quibusdam aspernatur.
29,753.620.8546,jjx,New Luluport,yjcn,Sed voluptates quo exercitationem eos aperiam ut et.,Similique iure quo ut ea voluptatem aliquam.
30,(015)870-6004x8347,pin,Port Colinstad,yrnx,Fugiat corporis enim eligendi qui quibusdam officia inventore.,Fugit cupiditate id repudiandae iste.
31,+50(2)5851715062,shh,North Trentonmouth,zwer,Et molestiae sit voluptas officiis distinctio explicabo facilis repudiandae.,Quae voluptatem dolor reprehenderit magni corrupti.
32,1-517-910-4785x596,lpe,New Gillian,tarf,Earum sunt dolorum quo vel et.,Deserunt aut omnis molestiae et corrupti veritatis dolor expedita.
33,257-242-9482x373,wmq,Kesslerburgh,mxpp,Ducimus quo rerum est eum.,Et nesciunt quam sunt.
34,1-451-603-3339x5907,rrv,Lake Pricetown,kdjt,Est natus blanditiis eveniet ut.,Aliquid et earum corporis.
35,534.262.4808,rsr,Ritchieshire,uzmt,Aut itaque alias et et minus.,Error molestiae ad nam sunt ad dolore ratione est.
36,697-660-2288,ccj,Sabrinaview,ggfy,Dolorem in impedit voluptas numquam fuga nesciunt est.,Impedit expedita eius consectetur sed doloremque blanditiis.
37,+40(6)3898729604,rhc,Lake Nicolette,lvxf,Laborum voluptatum vel aut.,Voluptatibus ipsum provident ea velit qui nihil.
38,797.392.7188,kvu,Arnobury,yayw,Sed nulla omnis dolorum et nisi.,Commodi incidunt architecto ipsum cupiditate sed nemo officiis.
39,411-155-9550x756,hwe,Zitaview,ztxe,Reprehenderit facilis omnis et sed nesciunt soluta ex.,Eum ratione repellat voluptatem.
40,+48(1)8548794881,vqr,Port Marvinton,aaqu,Nihil fugit repudiandae mollitia praesentium.,Sed molestiae accusamus aut voluptatem vel.
